NORAD_CAT_ID,OBJECT_NAME,OBJECT_TYPE,EPOCH,MEAN_MOTION,ECCENTRICITY,INCLINATION,RA_OF_ASC_NODE,ARG_OF_PERICENTER,MEAN_ANOMALY,BSTAR,MEAN_MOTION_DOT,MEAN_MOTION_DDOT,TLE_LINE0,TLE_LINE1,TLE_LINE2,SEMIMAJOR_AXIS,PERIOD,APOGEE,PERIGEE,DECAYED
52990.0,STARLINK-4286,PAYLOAD,2022-07-12 16:00:00,15.87779722,0.0030544,53.218,354.5936,56.5619,166.5576,-0.0040225,-0.01148336,0.0003779,0 STARLINK-4286,1 52990U 22076E   22193.66667824 -.01148336  37790-3 -40225-2 0  9996,2 52990  53.2180 354.5936 0030544  56.5619 166.5576 15.87779722  1304,6686.646,90.693,328.935,288.087,0.0
52990.0,STARLINK-4286,PAYLOAD,2022-07-13 04:00:00,15.8666484,0.0026478,53.2175,352.0669,55.8411,145.9278,-0.0044467,-0.01188321,0.00039808,0 STARLINK-4286,1 52990U 22076E   22194.16667824 -.01188321  39808-3 -44467-2 0  9994,2 52990  53.2175 352.0669 0026478  55.8411 145.9278 15.86664840  1377,6689.778,90.756,329.356,293.93,0.0
52990.0,STARLINK-4286,PAYLOAD,2022-07-13 14:00:01,15.85691482,0.002236,53.2177,349.9654,54.3882,8.0374,-0.0045037,-0.01138143,0.00036482,0 STARLINK-4286,1 52990U 22076E   22194.58334491 -.01138143  36482-3 -45037-2 0  9997,2 52990  53.2177 349.9654 0022360  54.3882   8.0374 15.85691482  1300,6692.515,90.812,329.345,299.416,0.0
52990.0,STARLINK-4286,PAYLOAD,2022-07-13 22:00:00,15.84941062,0.0019436,53.2173,348.2871,55.7928,110.121,-0.0047713,-0.01037811,0.0,0 STARLINK-4286,1 52990U 22076E   22194.91667824 -.01037811  00000-0 -47713-2 0  9990,2 52990  53.2173 348.2871 0019436  55.7928 110.1210 15.84941062  1300,6694.628000000002,90.855,329.504,303.481,0.0
52990.0,STARLINK-4286,PAYLOAD,2022-07-14 08:00:01,15.83988864,0.0015664,53.2172,346.1881,53.5847,330.414,-0.0050084,-0.0103336,0.0,0 STARLINK-4286,1 52990U 22076E   22195.33334491 -.01033360  00000-0 -50084-2 0  9998,2 52990  53.2172 346.1881 0015664  53.5847 330.4140 15.83988864  1569,6697.31,90.91,329.666,308.685,0.0
52990.0,STARLINK-4286,PAYLOAD,2022-07-14 14:00:01,15.83425092,0.0013618,53.2175,344.9329,51.8909,318.2692,-0.0052038999999999,-0.01040658,0.0,0 STARLINK-4286,1 52990U 22076E   22195.58334491 -.01040658  00000-0 -52039-2 0  9995,2 52990  53.2175 344.9329 0013618  51.8909 318.2692 15.83425092  1309,6698.9,90.942,329.8880000000001,311.642,0.0
52990.0,STARLINK-4286,PAYLOAD,2022-07-14 22:00:00,15.82654793,0.0010035,53.2172,343.2603,49.0527,61.8643,-0.0053006,-0.01019314,0.0,0 STARLINK-4286,1 52990U 22076E   22195.91667824 -.01019314  00000-0 -53006-2 0  9991,2 52990  53.2172 343.2603 0010035  49.0527  61.8643 15.82654793  1654,6701.073,90.986,329.663,316.214,0.0
52990.0,STARLINK-4286,PAYLOAD,2022-07-15 14:00:01,15.81160597,0.0005194,53.2176,339.9175,31.555,278.1247,-0.0059663,-0.01059044,0.0,0 STARLINK-4286,1 52990U 22076E   22196.58334491 -.01059044  00000-0 -59663-2 0  9995,2 52990  53.2176 339.9175 0005194  31.5550 278.1247 15.81160597  1764,6705.294,91.072,330.642,323.677,0.0
52990.0,STARLINK-4286,PAYLOAD,2022-07-15 22:00:00,15.80387313,0.0003723,53.2171,338.2501,15.9401,31.7601,-0.0060325,-0.01034806,0.0,0 STARLINK-4286,1 52990U 22076E   22196.91667824 -.01034806  00000-0 -60325-2 0  9997,2 52990  53.2171 338.2501 0003723  15.9401  31.7601 15.80387313  1304,6707.482,91.117,331.844,326.849,0.0
52990.0,STARLINK-4286,PAYLOAD,2022-07-16 14:00:01,15.78871303,0.0003157,53.2174,334.9190000000001,8.5606,232.4332,-0.0065017,-0.01057009,0.0,0 STARLINK-4286,1 52990U 22076E   22197.58334491 -.01057009  00000-0 -65017-2 0  9995,2 52990  53.2174 334.9190 0003157   8.5606 232.4332 15.78871303  1923,6711.774,91.204,335.7580000000001,331.521,0.0
52990.0,STARLINK-4286,PAYLOAD,2022-07-16 22:00:00,15.78114226,0.0003013999999999,53.2172,333.25699999999995,6.4344,329.8361,-0.0067465,-0.01059353,0.0,0 STARLINK-4286,1 52990U 22076E   22197.91667824 -.01059353  00000-0 -67465-2 0  9994,2 52990  53.2172 333.2570 0003014   6.4344 329.8361 15.78114226  1302,6713.920999999999,91.248,337.809,333.76199999999994,0.0
52990.0,STARLINK-4286,PAYLOAD,2022-07-17 06:00:00,15.77351374,0.0003023,53.2175,331.5942,7.3687,63.2703,-0.0069548,-0.01055516,0.0,0 STARLINK-4286,1 52990U 22076E   22198.25001157 -.01055516  00000-0 -69548-2 0  9994,2 52990  53.2175 331.5942 0003023   7.3687  63.2703 15.77351374  2024,6716.085,91.292,339.981,335.92,0.0
52990.0,STARLINK-4286,PAYLOAD,2022-07-17 14:00:01,15.76591094,0.0003735,53.2176,329.9369999999999,4.8191,159.2719,-0.0071765,-0.01053341,0.0,0 STARLINK-4286,1 52990U 22076E   22198.58334491 -.01053341  00000-0 -71765-2 0  9998,2 52990  53.2176 329.9370 0003735   4.8191 159.2719 15.76591094  1300,6718.244000000002,91.336,342.619,337.6,0.0
52990.0,STARLINK-4286,PAYLOAD,2022-07-17 22:00:00,15.75836419,0.0003631,53.2171,328.2804,3.7005,252.9287,-0.0074782,-0.01060539,0.0,0 STARLINK-4286,1 52990U 22076E   22198.91667824 -.01060539  00000-0 -74782-2 0  9993,2 52990  53.2171 328.2804 0003631   3.7005 252.9287 15.75836419  1309,6720.389,91.38,344.694,339.814,0.0
52990.0,STARLINK-4286,PAYLOAD,2022-07-18 06:00:00,15.75072338,0.0001381,53.2172,326.6235,28.4628,319.7971,-0.0076859,-0.01053435,0.0,0 STARLINK-4286,1 52990U 22076E   22199.25001157 -.01053435  00000-0 -76859-2 0  9996,2 52990  53.2172 326.6235 0001381  28.4628 319.7971 15.75072338  2186,6722.562,91.424,345.356,343.499,0.0
52990.0,STARLINK-4286,PAYLOAD,2022-07-18 14:00:01,15.74285638,0.0001477,53.2173,324.9721,31.572,47.407,-0.0074524,-0.00993051,0.0,0 STARLINK-4286,1 52990U 22076E   22199.58334491 -.00993051  00000-0 -74524-2 0  9995,2 52990  53.2173 324.9721 0001477  31.5720  47.4070 15.74285638  1308,6724.802,91.47,347.66,345.673,0.0
52990.0,STARLINK-4286,PAYLOAD,2022-07-18 22:00:00,15.73455327,0.0001544,53.2173,323.3209,31.2621,137.5245,-0.0025862,-0.00352641,0.0,0 STARLINK-4286,1 52990U 22076E   22199.91667824 -.00352641  00000-0 -25862-2 0  9996,2 52990  53.2173 323.3209 0001544  31.2621 137.5245 15.73455327  2280,6727.167,91.518,350.071,347.994,0.0
52990.0,STARLINK-4286,PAYLOAD,2022-07-19 06:00:00,15.73203136,0.0001104,53.2174,321.6691,74.3279,183.5386,1.2373e-05,1.117e-05,0.0,0 STARLINK-4286,1 52990U 22076E   22200.25001157  .00001117  00000-0  12373-4 0  9999,2 52990  53.2174 321.6691 0001104  74.3279 183.5386 15.73203136  2349,6727.886,91.533,350.494,349.0080000000001,0.0
52990.0,STARLINK-4286,PAYLOAD,2022-07-19 14:00:01,15.73276638,0.0001413,53.2197,320.0273,39.4204,307.4534,-0.00057749,-0.00081155,0.0,0 STARLINK-4286,1 52990U 22076E   22200.58334491 -.00081155  00000-0 -57749-3 0  9992,2 52990  53.2197 320.0273 0001413  39.4204 307.4534 15.73276638  2390,6727.677,91.529,350.492,348.591,0.0
52990.0,STARLINK-4286,PAYLOAD,2022-07-19 22:00:00,15.7320549,0.0001422,53.2171,318.3717,46.8514,28.8815,-1.146e-05,-2.228e-05,0.0,0 STARLINK-4286,1 52990U 22076E   22200.91667824 -.00002228  00000-0 -11460-4 0  9993,2 52990  53.2171 318.3717 0001422  46.8514  28.8815 15.73205490  1305,6727.88,91.533,350.701,348.788,0.0
52990.0,STARLINK-4286,PAYLOAD,2022-07-20 06:00:00,15.73160351,0.0001205999999999,53.2192,316.7265,38.0557,126.7846,0.00053698,0.00075291,0.0,0 STARLINK-4286,1 52990U 22076E   22201.25001157  .00075291  00000-0  53698-3 0  9998,2 52990  53.2192 316.7265 0001206  38.0557 126.7846 15.73160351  2497,6728.0080000000025,91.535,350.685,349.06199999999984,0.0
52990.0,STARLINK-4286,PAYLOAD,2022-07-20 14:00:01,15.73240069,0.0001485,53.2193,315.0791,34.1031,219.6448,-0.00017553,-0.00025224,0.0,0 STARLINK-4286,1 52990U 22076E   22201.58334491 -.00025224  00000-0 -17553-3 0  9997,2 52990  53.2193 315.0791 0001485  34.1031 219.6448 15.73240069  1301,6727.781,91.531,350.645,348.647,0.0
52990.0,STARLINK-4286,PAYLOAD,2022-07-20 22:00:01,15.73207686,0.0001653,53.2195,313.4293,37.4197,305.3369,-0.0005708999999999,-0.00080014,0.0,0 STARLINK-4286,1 52990U 22076E   22201.91668981 -.00080014  00000-0 -57090-3 0  9996,2 52990  53.2195 313.4293 0001653  37.4197 305.3369 15.73207686  2605,6727.873000000001,91.533,350.85,348.626,0.0
52990.0,STARLINK-4286,PAYLOAD,2022-07-21 14:00:01,15.73178155,0.0001966999999999,53.2194,310.1308,43.4358,117.125,0.0002444,0.00033787,0.0,0 STARLINK-4286,1 52990U 22076E   22202.58335648  .00033787  00000-0  24440-3 0  9997,2 52990  53.2194 310.1308 0001967  43.4358 117.1250 15.73178155  2706,6727.956999999999,91.534,351.146,348.499,0.0
52990.0,STARLINK-4286,PAYLOAD,2022-07-21 22:00:00,15.73250326,0.0001853,53.2188,308.481,40.9705,208.4314,-0.00031293,-0.00044404,0.0,0 STARLINK-4286,1 52990U 22076E   22202.91667824 -.00044404  00000-0 -31293-3 0  9992,2 52990  53.2188 308.4810 0001853  40.9705 208.4314 15.73250326  1300,6727.752,91.53,350.86300000000006,348.37,0.0
52990.0,STARLINK-4286,PAYLOAD,2022-07-22 06:00:00,15.73195503,0.0001597,53.2192,306.83,42.3292,296.0488,0.00025731,0.00035638,0.0,0 STARLINK-4286,1 52990U 22076E   22203.25001157  .00035638  00000-0  25731-3 0  9998,2 52990  53.2192 306.8300 0001597  42.3292 296.0488 15.73195503  1303,6727.908,91.533,350.847,348.699,0.0
52990.0,STARLINK-4286,PAYLOAD,2022-07-22 12:00:00,15.73233476,0.0001665,53.2192,305.5946,33.9437,281.134,-0.00058967,-0.00082689,0.0,0 STARLINK-4286,1 52990U 22076E   22203.50001157 -.00082689  00000-0 -58967-3 0  9993,2 52990  53.2192 305.5946 0001665  33.9437 281.1340 15.73233476  2853,6727.8,91.531,350.785,348.545,0.0
52990.0,STARLINK-4286,PAYLOAD,2022-07-22 22:00:00,15.73264412,0.0001803,53.2195,303.5325,31.1083,125.1554,-0.00065971,-0.00092455,0.0,0 STARLINK-4286,1 52990U 22076E   22203.91667824 -.00092455  00000-0 -65971-3 0  9992,2 52990  53.2195 303.5325 0001803  31.1083 125.1554 15.73264412  2911,6727.712,91.529,350.79,348.36400000000015,0.0
52990.0,STARLINK-4286,PAYLOAD,2022-07-23 14:00:01,15.73149444,0.0002208,53.2195,300.2344,40.592,293.5865,1.7297e-05,1.802e-05,0.0,0 STARLINK-4286,1 52990U 22076E   22204.58335648  .00001802  00000-0  17297-4 0  9995,2 52990  53.2195 300.2344 0002208  40.5920 293.5865 15.73149444  1304,6728.0390000000025,91.536,351.39,348.4190000000001,0.0
